NORAD_CAT_ID,OBJECT_NAME,OBJECT_TYPE,EPOCH,MEAN_MOTION,ECCENTRICITY,INCLINATION,RA_OF_ASC_NODE,ARG_OF_PERICENTER,MEAN_ANOMALY,BSTAR,MEAN_MOTION_DOT,MEAN_MOTION_DDOT,TLE_LINE0,TLE_LINE1,TLE_LINE2,SEMIMAJOR_AXIS,PERIOD,APOGEE,PERIGEE,DECAYED
53979.0,STARLINK-5123,PAYLOAD,2023-05-07 04:19:01,15.08844239,0.0001173,53.2132,196.6791,86.0783,274.0344,0.00015175,2.128e-05,0.0,0 STARLINK-5123,1 53979U 22125R   23127.17988077  .00002128  00000-0  15175-3 0  9992,2 53979  53.2132 196.6791 0001173  86.0783 274.0344 15.08844239 32838,6917.867,95.437,540.544,538.921,0.0
53979.0,STARLINK-5123,PAYLOAD,2023-05-07 12:15:57,15.08846601,0.0001214,53.215,195.1917,84.4962,275.6169,8.2977e-05,1.033e-05,0.0,0 STARLINK-5123,1 53979U 22125R   23127.51108029  .00001033  00000-0  82977-4 0  9990,2 53979  53.2150 195.1917 0001214  84.4962 275.6169 15.08846601 32814,6917.86,95.437,540.565,538.885,0.0
53979.0,STARLINK-5123,PAYLOAD,2023-05-08 04:09:49,15.08837258,0.0001364,53.2158,192.2195,86.5805,273.5343,3.8187e-05,3.2e-06,0.0,0 STARLINK-5123,1 53979U 22125R   23128.17348617  .00000320  00000-0  38187-4 0  9994,2 53979  53.2158 192.2195 0001364  86.5805 273.5343 15.08837258 32980,6917.889,95.438,540.697,538.81,0.0
53979.0,STARLINK-5123,PAYLOAD,2023-05-08 10:31:21,15.0883888,0.0001231,53.2161,191.026,103.1129,257.0,7.2599e-05,8.68e-06,0.0,0 STARLINK-5123,1 53979U 22125R   23128.43844466  .00000868  00000-0  72599-4 0  9998,2 53979  53.2161 191.0260 0001231 103.1129 257.0000 15.08838880 32958,6917.884,95.438,540.6,538.897,0.0
53979.0,STARLINK-5123,PAYLOAD,2023-05-09 10:22:08,15.08846487,0.000126,53.217,186.566,109.2459,250.867,6.526e-05,7.51e-06,0.0,0 STARLINK-5123,1 53979U 22125R   23129.43204141  .00000751  00000-0  65260-4 0  9997,2 53979  53.2170 186.5660 0001260 109.2459 250.8670 15.08846487 33100,6917.861,95.437,540.597,538.854,0.0
53979.0,STARLINK-5123,PAYLOAD,2023-05-10 10:12:55,15.08840404,0.0001242,53.2164,182.1076,102.8136,257.2995,0.00011491,1.541e-05,0.0,0 STARLINK-5123,1 53979U 22125R   23130.42564669  .00001541  00000-0  11491-3 0  9996,2 53979  53.2164 182.1076 0001242 102.8136 257.2995 15.08840404 33257,6917.879,95.438,540.603,538.885,0.0
53979.0,STARLINK-5123,PAYLOAD,2023-05-11 08:28:19,15.08842908,0.0001257,53.2164,177.9452,108.0614,252.0515,7.3266e-05,8.78e-06,0.0,0 STARLINK-5123,1 53979U 22125R   23131.35300564  .00000878  00000-0  73266-4 0  9992,2 53979  53.2164 177.9452 0001257 108.0614 252.0515 15.08842908 33399,6917.872,95.437,540.606,538.867,0.0
53979.0,STARLINK-5123,PAYLOAD,2023-05-11 19:36:01,15.08838847,0.0001131,53.2158,175.8629,101.8154,258.2965,6.9666e-05,8.21e-06,0.0,0 STARLINK-5123,1 53979U 22125R   23131.81668822  .00000821  00000-0  69666-4 0  9994,2 53979  53.2158 175.8629 0001131 101.8154 258.2965 15.08838847 33468,6917.884,95.438,540.531,538.967,0.0
53979.0,STARLINK-5123,PAYLOAD,2023-05-11 22:46:48,15.08837567,0.0001234,53.2163,175.2694,111.0357,249.0767,5.263e-05,5.5e-06,0.0,0 STARLINK-5123,1 53979U 22125R   23131.94916959  .00000550  00000-0  52630-4 0  9997,2 53979  53.2163 175.2694 0001234 111.0357 249.0767 15.08837567 33558,6917.888,95.438,540.606,538.899,0.0
53979.0,STARLINK-5123,PAYLOAD,2023-05-12 08:19:07,15.08832571,0.0001189,53.2161,173.4846,110.9532,249.1588,-3.1465e-06,-3.38e-06,0.0,0 STARLINK-5123,1 53979U 22125R   23132.34661517 -.00000338  00000-0 -31465-5 0  9999,2 53979  53.2161 173.4846 0001189 110.9532 249.1588 15.08832571 33616,6917.903,95.438,540.591,538.946,0.0
53979.0,STARLINK-5123,PAYLOAD,2023-05-12 19:26:49,15.08838131,0.0001157,53.2161,171.4035,110.2688,249.8428,3.8273e-05,3.21e-06,0.0,0 STARLINK-5123,1 53979U 22125R   23132.81029156  .00000321  00000-0  38273-4 0  9991,2 53979  53.2161 171.4035 0001157 110.2688 249.8428 15.08838131 33612,6917.886,95.438,540.552,538.951,0.0
53979.0,STARLINK-5123,PAYLOAD,2023-05-12 22:37:35,15.08841131,0.0001091,53.2161,170.8083,108.8315,251.2796,7.0296e-05,8.31e-06,0.0,0 STARLINK-5123,1 53979U 22125R   23132.94276884  .00000831  00000-0  70296-4 0  9994,2 53979  53.2161 170.8083 0001091 108.8315 251.2796 15.08841131 33704,6917.877,95.437,540.497,538.987,0.0
53979.0,STARLINK-5123,PAYLOAD,2023-05-13 09:45:17,15.08842572,0.000107,53.216,168.7268,107.5924,252.5185,7.5909e-05,9.21e-06,0.0,0 STARLINK-5123,1 53979U 22125R   23133.40644782  .00000921  00000-0  75909-4 0  9998,2 53979  53.2160 168.7268 0001070 107.5924 252.5185 15.08842572 33709,6917.873,95.437,540.478,538.997,0.0
53979.0,STARLINK-5123,PAYLOAD,2023-05-13 19:17:36,15.08837373,0.0001008,53.2159,166.9432,93.5597,266.551,4.9681e-05,5.03e-06,0.0,0 STARLINK-5123,1 53979U 22125R   23133.80389214  .00000503  00000-0  49681-4 0  9992,2 53979  53.2159 166.9432 0001008  93.5597 266.5510 15.08837373 33835,6917.888,95.438,540.451,539.056,0.0
53979.0,STARLINK-5123,PAYLOAD,2023-05-14 09:36:05,15.08831522,0.0001032,53.2155,164.2655,89.682,270.4291,6.8315e-05,7.99e-06,0.0,0 STARLINK-5123,1 53979U 22125R   23134.40005850  .00000799  00000-0  68315-4 0  9992,2 53979  53.2155 164.2655 0001032  89.6820 270.4291 15.08831522 33921,6917.906,95.438,540.485,539.057,0.0
53979.0,STARLINK-5123,PAYLOAD,2023-05-14 19:08:23,15.08836201,0.0001065,53.2153,162.4808,87.6065,272.5049,4.5409e-05,4.35e-06,0.0,0 STARLINK-5123,1 53979U 22125R   23134.79749715  .00000435  00000-0  45409-4 0  9995,2 53979  53.2153 162.4808 0001065  87.6065 272.5049 15.08836201 33916,6917.892,95.438,540.494,539.02,0.0
53979.0,STARLINK-5123,PAYLOAD,2023-05-15 09:26:51,15.08840095,0.0001086,53.2154,159.805,86.0986,274.013,3.6499e-05,2.93e-06,0.0,0 STARLINK-5123,1 53979U 22125R   23135.39365567  .00000293  00000-0  36499-4 0  9992,2 53979  53.2154 159.8050 0001086  86.0986 274.0130 15.08840095 34076,6917.88,95.438,540.496,538.994,0.0
53979.0,STARLINK-5123,PAYLOAD,2023-05-15 18:59:10,15.08840923,0.000109,53.2156,158.0206,85.7058,274.4058,5.6839e-05,6.17e-06,0.0,0 STARLINK-5123,1 53979U 22125R   23135.79109440  .00000617  00000-0  56839-4 0  9992,2 53979  53.2156 158.0206 0001090  85.7058 274.4058 15.08840923 34065,6917.878,95.437,540.497,538.989,0.0
53979.0,STARLINK-5123,PAYLOAD,2023-05-16 07:42:15,15.08842689,0.0001064,53.2157,155.6414,85.523,274.5884,0.00010208,1.337e-05,0.0,0 STARLINK-5123,1 53979U 22125R   23136.32101222  .00001337  00000-0  10208-3 0  9991,2 53979  53.2157 155.6414 0001064  85.5230 274.5884 15.08842689 34149,6917.872,95.437,540.473,539.001,0.0
53979.0,STARLINK-5123,PAYLOAD,2023-05-17 07:33:02,15.08842024,0.0001069,53.2154,151.1812,80.8391,279.2722,5.9975e-05,6.67e-06,0.0,0 STARLINK-5123,1 53979U 22125R   23137.31461244  .00000667  00000-0  59975-4 0  9994,2 53979  53.2154 151.1812 0001069  80.8391 279.2722 15.08842024 34360,6917.874,95.437,540.479,539.0,0.0
53979.0,STARLINK-5123,PAYLOAD,2023-05-18 12:09:59,15.08838571,0.0001152,53.216,145.827,94.98,265.1324,-1.666e-06,-3.14e-06,0.0,0 STARLINK-5123,1 53979U 22125R   23138.50693471 -.00000314  00000-0 -16660-5 0  9991,2 53979  53.2160 145.8270 0001152  94.9800 265.1324 15.08838571 34475,6917.885,95.438,540.547,538.953,0.0
53979.0,STARLINK-5123,PAYLOAD,2023-05-18 16:56:08,15.08838157,0.0001153,53.2161,144.935,94.5377,265.5747,-5.9191e-06,-3.82e-06,0.0,0 STARLINK-5123,1 53979U 22125R   23138.70565510 -.00000382  00000-0 -59191-5 0  9996,2 53979  53.2161 144.9350 0001153  94.5377 265.5747 15.08838157 34575,6917.886,95.438,540.549,538.953,0.0
53979.0,STARLINK-5123,PAYLOAD,2023-05-19 16:46:55,15.08836591,0.000108,53.2154,140.4755,86.808,273.3035,2.261e-05,7.2e-07,0.0,0 STARLINK-5123,1 53979U 22125R   23139.69925621  .00000072  00000-0  22610-4 0  9997,2 53979  53.2154 140.4755 0001080  86.8080 273.3035 15.08836591 34657,6917.891,95.438,540.503,539.009,0.0
53979.0,STARLINK-5123,PAYLOAD,2023-05-20 00:43:51,15.08834479,0.0001089,53.2157,138.9886,87.3192,272.7924,1.8426e-05,5e-08,0.0,0 STARLINK-5123,1 53979U 22125R   23140.03045842  .00000005  00000-0  18426-4 0  9991,2 53979  53.2157 138.9886 0001089  87.3192 272.7924 15.08834479 34772,6917.897,95.438,540.516,539.009,0.0
53979.0,STARLINK-5123,PAYLOAD,2023-05-20 16:37:42,15.08839297,0.0001111,53.216,136.0151,86.5717,273.5403,5.8693e-05,6.46e-06,0.0,0 STARLINK-5123,1 53979U 22125R   23140.69285584  .00000646  00000-0  58693-4 0  9993,2 53979  53.2160 136.0151 0001111  86.5717 273.5403 15.08839297 34808,6917.883,95.438,540.516,538.979,0.0
53979.0,STARLINK-5123,PAYLOAD,2023-05-21 08:31:33,15.08845684,0.0001113,53.2158,133.0413,84.9718,275.1401,9.3159e-05,1.195e-05,0.0,0 STARLINK-5123,1 53979U 22125R   23141.35525040  .00001195  00000-0  93159-4 0  9997,2 53979  53.2158 133.0413 0001113  84.9718 275.1401 15.08845684 34979,6917.863,95.437,540.498,538.958,0.0
53979.0,STARLINK-5123,PAYLOAD,2023-05-21 16:28:29,15.08838762,0.0001104,53.216,131.5552,89.5415,270.5704,4.0297e-05,3.54e-06,0.0,0 STARLINK-5123,1 53979U 22125R   23141.68645633  .00000354  00000-0  40297-4 0  9995,2 53979  53.2160 131.5552 0001104  89.5415 270.5704 15.08838762 35025,6917.884,95.438,540.513,538.985,0.0
53979.0,STARLINK-5123,PAYLOAD,2023-05-21 22:50:02,15.0883518,0.0001214,53.2159,130.3657,88.2804,271.8327,2.8712e-05,1.69e-06,0.0,0 STARLINK-5123,1 53979U 22125R   23141.95142005  .00000169  00000-0  28712-4 0  9992,2 53979  53.2159 130.3657 0001214  88.2804 271.8327 15.08835180 34997,6917.895,95.438,540.6,538.92,0.0
53979.0,STARLINK-5123,PAYLOAD,2023-05-22 03:36:12,15.0883291,0.0001151,53.2163,129.4735,89.6966,270.4158,3.7645e-06,-2.28e-06,0.0,0 STARLINK-5123,1 53979U 22125R   23142.15014306 -.00000228  00000-0  37645-5 0  9990,2 53979  53.2163 129.4735 0001151  89.6966 270.4158 15.08832910 35099,6917.902,95.438,540.563,538.971,0.0
53979.0,STARLINK-5123,PAYLOAD,2023-05-22 22:40:49,15.08840188,0.0001113,53.2158,125.9043,87.1374,272.9745,1.8424e-05,5e-08,0.0,0 STARLINK-5123,1 53979U 22125R   23142.94501930  .00000005  00000-0  18424-4 0  9996,2 53979  53.2158 125.9043 0001113  87.1374 272.9745 15.08840188 35141,6917.88,95.438,540.515,538.975,0.0
